[{"OBJECT_NAME":"ONEWEB-0285","OBJECT_ID":"2021-075A","EPOCH":"2026-03-09T21:01:01.616160","MEAN_MOTION":13.1244265,"ECCENTRICITY":0.0001853,"INCLINATION":87.9003,"RA_OF_ASC_NODE":10.3712,"ARG_OF_PERICENTER":80.037,"MEAN_ANOMALY":280.0968,"EPHEMERIS_TYPE":0,"CLASSIFICATION_TYPE":"U","NORAD_CAT_ID":49075,"ELEMENT_SET_NO":999,"REV_AT_EPOCH":22218,"BSTAR":-0.00037621034,"MEAN_MOTION_DOT":-1.23e-6,"MEAN_MOTION_DDOT":0},{"OBJECT_NAME":"DELTA 1 DEB","OBJECT_ID":"1977-065CC","EPOCH":"2026-03-09T22:33:14.085504","MEAN_MOTION":13.8497458,"ECCENTRICITY":0.06695418,"INCLINATION":28.9783,"RA_OF_ASC_NODE":359.1013,"ARG_OF_PERICENTER":308.7305,"MEAN_ANOMALY":45.5226,"EPHEMERIS_TYPE":0,"CLASSIFICATION_TYPE":"U","NORAD_CAT_ID":10251,"ELEMENT_SET_NO":999,"REV_AT_EPOCH":40349,"BSTAR":0.00050077095,"MEAN_MOTION_DOT":3.77e-5,"MEAN_MOTION_DDOT":0}]
